NORAD_CAT_ID,OBJECT_NAME,OBJECT_TYPE,EPOCH,MEAN_MOTION,ECCENTRICITY,INCLINATION,RA_OF_ASC_NODE,ARG_OF_PERICENTER,MEAN_ANOMALY,BSTAR,MEAN_MOTION_DOT,MEAN_MOTION_DDOT,TLE_LINE0,TLE_LINE1,TLE_LINE2,SEMIMAJOR_AXIS,PERIOD,APOGEE,PERIGEE,DECAYED
56793.0,STARLINK-6052,PAYLOAD,2024-03-21 20:13:06,14.98384021,0.0002914,70.0005,354.4071,248.8412,111.2436,0.00041161,4.828e-05,0.0,0 STARLINK-6052,1 56793U 23078AC  24081.84243611  .00004828  00000-0  41161-3 0  9992,2 56793  70.0005 354.4071 0002914 248.8412 111.2436 14.98384021 45415,6950.026,96.104,573.916,569.866,0.0
56793.0,STARLINK-6052,PAYLOAD,2024-03-21 21:49:19,14.98314555,0.0002751,70.0005,354.2393,256.0512,104.0341,-0.00036073,-4.393e-05,0.0,0 STARLINK-6052,1 56793U 23078AC  24081.90925755 -.00004393  00000-0 -36073-3 0  9990,2 56793  70.0005 354.2393 0002751 256.0512 104.0341 14.98314555 45163,6950.241,96.108,574.018,570.194,0.0
56793.0,STARLINK-6052,PAYLOAD,2024-03-22 04:13:51,14.98329264,0.000284,70.0006,353.565,270.8969,89.1865,-0.00016248,-2.031e-05,0.0,0 STARLINK-6052,1 56793U 23078AC  24082.17628553 -.00002031  00000-0 -16248-3 0  9995,2 56793  70.0006 353.5650 0002840 270.8969  89.1865 14.98329264 45461,6950.195,96.107,574.034,570.086,0.0
56793.0,STARLINK-6052,PAYLOAD,2024-03-22 05:49:58,14.98330923,0.0003016,70.0005,353.3967,271.3587,88.7227,-0.0001539,-1.929e-05,0.0,0 STARLINK-6052,1 56793U 23078AC  24082.24304375 -.00001929  00000-0 -15390-3 0  9998,2 56793  70.0005 353.3967 0003016 271.3587  88.7227 14.98330923 45211,6950.19,96.107,574.151,569.959,0.0
56793.0,STARLINK-6052,PAYLOAD,2024-03-22 20:15:08,14.98362615,0.0002766,70.0003,351.8831,268.434,91.6502,0.0005146,6.058e-05,0.0,0 STARLINK-6052,1 56793U 23078AC  24082.84385337  .00006058  00000-0  51460-3 0  9995,2 56793  70.0003 351.8831 0002766 268.4340  91.6502 14.98362615 45567,6950.092,96.105,573.879,570.035,0.0
56793.0,STARLINK-6052,PAYLOAD,2024-03-22 21:51:16,14.98384079,0.000264,70.0005,351.7141,269.0522,91.0335,0.00011339,1.262e-05,0.0,0 STARLINK-6052,1 56793U 23078AC  24082.91061146  .00001262  00000-0  11339-3 0  9995,2 56793  70.0005 351.7141 0002640 269.0522  91.0335 14.98384079 45311,6950.026,96.104,573.725,570.056,0.0
56793.0,STARLINK-6052,PAYLOAD,2024-03-23 04:15:47,14.9839451,0.0002679,69.9999,351.0399,283.4748,76.6113,0.00021439,2.47e-05,0.0,0 STARLINK-6052,1 56793U 23078AC  24083.17763291  .00002470  00000-0  21439-3 0  9998,2 56793  69.9999 351.0399 0002679 283.4748  76.6113 14.98394510 45617,6949.993,96.103,573.72,569.997,0.0
56793.0,STARLINK-6052,PAYLOAD,2024-03-23 20:17:12,14.98331632,0.0003469,69.9995,349.3564,264.9134,95.1629,-0.00052532,-6.356e-05,0.0,0 STARLINK-6052,1 56793U 23078AC  24083.84528576 -.00006356  00000-0 -52532-3 0  9994,2 56793  69.9995 349.3564 0003469 264.9134  95.1629 14.98331632 45713,6950.188,96.107,574.464,569.642,0.0
56793.0,STARLINK-6052,PAYLOAD,2024-03-23 21:53:19,14.98354176,0.0002922,69.9987,349.1889,261.6743,98.4084,-0.00067736,-8.171e-05,0.0,0 STARLINK-6052,1 56793U 23078AC  24083.91203642 -.00008171  00000-0 -67736-3 0  9995,2 56793  69.9987 349.1889 0002922 261.6743  98.4084 14.98354176 45466,6950.118,96.105,574.014,569.952,0.0
56793.0,STARLINK-6052,PAYLOAD,2024-03-24 02:41:43,14.98355673,0.0003131,69.9992,348.6847,252.7435,107.3382,-0.00069327,-8.361e-05,0.0,0 STARLINK-6052,1 56793U 23078AC  24084.11231275 -.00008361  00000-0 -69327-3 0  9990,2 56793  69.9992 348.6847 0003131 252.7435 107.3382 14.98355673 45758,6950.114,96.105,574.155,569.802,0.0
56793.0,STARLINK-6052,PAYLOAD,2024-03-24 10:42:25,14.9831343,0.0003149,70.0015,347.8413,280.4437,79.6367,-0.00011335,-1.445e-05,0.0,0 STARLINK-6052,1 56793U 23078AC  24084.44612970 -.00001445  00000-0 -11335-3 0  9993,2 56793  70.0015 347.8413 0003149 280.4437  79.6367 14.98313430 45801,6950.244,96.108,574.298,569.921,0.0
56793.0,STARLINK-6052,PAYLOAD,2024-03-24 21:55:23,14.98329903,0.0002978,70.0,346.6643,270.6292,89.4526,-0.00058911,-7.115e-05,0.0,0 STARLINK-6052,1 56793U 23078AC  24084.91346197 -.00007115  00000-0 -58911-3 0  9991,2 56793  70.0000 346.6643 0002978 270.6292  89.4526 14.98329903 45613,6950.193,96.107,574.128,569.988,0.0
56793.0,STARLINK-6052,PAYLOAD,2024-03-25 04:19:54,14.98343032,0.0003061,69.9999,345.9895,270.2548,89.826,-0.00038643,-4.702e-05,0.0,0 STARLINK-6052,1 56793U 23078AC  24085.18048638 -.00004702  00000-0 -38643-3 0  9999,2 56793  69.9999 345.9895 0003061 270.2548  89.8260 14.98343032 45913,6950.153,96.106,574.145,569.89,0.0
56793.0,STARLINK-6052,PAYLOAD,2024-03-25 10:44:26,14.98337238,0.0002549,70.0023,345.3148,288.8574,71.2308,-0.00047621,-5.771e-05,0.0,0 STARLINK-6052,1 56793U 23078AC  24085.44753325 -.00005771  00000-0 -47621-3 0  9997,2 56793  70.0023 345.3148 0002549 288.8574  71.2308 14.98337238 45956,6950.171,96.107,573.807,570.264,0.0
56793.0,STARLINK-6052,PAYLOAD,2024-03-25 20:21:16,14.98300501,0.0003246,69.9998,344.3066,273.0516,87.0271,7.9343e-05,8.53e-06,0.0,0 STARLINK-6052,1 56793U 23078AC  24085.84810467  .00000853  00000-0  79343-4 0  9993,2 56793  69.9998 344.3066 0003246 273.0516  87.0271 14.98300501 46014,6950.284,96.109,574.405,569.893,0.0
56793.0,STARLINK-6052,PAYLOAD,2024-03-25 21:57:24,14.98299393,0.0003191,70.0003,344.1386,271.832,88.2473,7.9333e-05,8.53e-06,0.0,0 STARLINK-6052,1 56793U 23078AC  24085.91486663  .00000853  00000-0  79333-4 0  9997,2 56793  70.0003 344.1386 0003191 271.8320  88.2473 14.98299393 45769,6950.288,96.109,574.37,569.935,0.0
56793.0,STARLINK-6052,PAYLOAD,2024-03-26 10:46:28,14.98319508,0.0003406,70.0,342.7915,271.1716,88.9053,5.6184e-05,5.77e-06,0.0,0 STARLINK-6052,1 56793U 23078AC  24086.44894075  .00000577  00000-0  56184-4 0  9998,2 56793  70.0000 342.7915 0003406 271.1716  88.9053 14.98319508 46100,6950.225,96.108,574.458,569.723,0.0
56793.0,STARLINK-6052,PAYLOAD,2024-03-26 23:35:32,14.98325108,0.0003118,70.0001,341.4458,265.5175,94.5628,0.00025569,2.959e-05,0.0,0 STARLINK-6052,1 56793U 23078AC  24086.98301671  .00002959  00000-0  25569-3 0  9990,2 56793  70.0001 341.4458 0003118 265.5175  94.5628 14.98325108 45928,6950.208,96.107,574.24,569.906,0.0
56793.0,STARLINK-6052,PAYLOAD,2024-03-27 02:47:48,14.9833053,0.0003135,70.0001,341.109,269.4103,90.6697,0.00024719,2.858e-05,0.0,0 STARLINK-6052,1 56793U 23078AC  24087.11653389  .00002858  00000-0  24719-3 0  9996,2 56793  70.0001 341.1090 0003135 269.4103  90.6697 14.98330530 46200,6950.191,96.107,574.235,569.877,0.0
56793.0,STARLINK-6052,PAYLOAD,2024-03-27 10:48:26,14.98361141,0.0003427,70.0006,340.2649,267.9418,92.1349,0.00046325,5.443e-05,0.0,0 STARLINK-6052,1 56793U 23078AC  24087.45030380  .00005443  00000-0  46325-3 0  9993,2 56793  70.0006 340.2649 0003427 267.9418  92.1349 14.98361141 46259,6950.097,96.105,574.343,569.58,0.0
56793.0,STARLINK-6052,PAYLOAD,2024-03-27 20:25:18,14.98303856,0.0004347,70.0001,339.2575,292.8028,67.2671,-0.00010766,-1.377e-05,0.0,0 STARLINK-6052,1 56793U 23078AC  24087.85090885 -.00001377  00000-0 -10766-3 0  9997,2 56793  70.0001 339.2575 0004347 292.8028  67.2671 14.98303856 46313,6950.274,96.109,575.16,569.117,0.0
56793.0,STARLINK-6052,PAYLOAD,2024-03-27 22:01:26,14.98309596,0.000312,70.0,339.0892,270.7932,89.287,-5.4029e-05,-7.37e-06,0.0,0 STARLINK-6052,1 56793U 23078AC  24087.91766286 -.00000737  00000-0 -54029-4 0  9999,2 56793  70.0000 339.0892 0003120 270.7932  89.2870 14.98309596 46063,6950.256,96.108,574.289,569.953,0.0
56793.0,STARLINK-6052,PAYLOAD,2024-03-28 02:49:50,14.9831515,0.0003188,70.0,338.5844,272.1765,87.9029,-6.4497e-05,-8.62e-06,0.0,0 STARLINK-6052,1 56793U 23078AC  24088.11794092 -.00000862  00000-0 -64497-4 0  9997,2 56793  70.0000 338.5844 0003188 272.1765  87.9029 14.98315150 46354,6950.239,96.108,574.32,569.888,0.0
56793.0,STARLINK-6052,PAYLOAD,2024-03-28 22:03:27,14.98320899,0.0003181,69.9999,336.5639,272.946,87.1335,-0.00021024,-2.6e-05,0.0,0 STARLINK-6052,1 56793U 23078AC  24088.91906440 -.00002600  00000-0 -21024-3 0  9997,2 56793  69.9999 336.5639 0003181 272.9460  87.1335 14.98320899 46214,6950.221,96.108,574.297,569.875,0.0
56793.0,STARLINK-6052,PAYLOAD,2024-03-29 02:51:52,14.98287291,0.0002704,69.9997,336.0584,269.5115,90.5734,0.00011227,1.245e-05,0.0,0 STARLINK-6052,1 56793U 23078AC  24089.11936109  .00001245  00000-0  11227-3 0  9991,2 56793  69.9997 336.0584 0002704 269.5115  90.5734 14.98287291 46506,6950.325,96.11,574.069,570.311,0.0
56793.0,STARLINK-6052,PAYLOAD,2024-03-29 09:16:24,14.98319466,0.0003301,69.9987,335.3858,273.1862,86.8919,-0.00033837,-4.127e-05,0.0,0 STARLINK-6052,1 56793U 23078AC  24089.38639287 -.00004127  00000-0 -33837-3 0  9992,2 56793  69.9987 335.3858 0003301 273.1862  86.8919 14.98319466 46542,6950.225,96.108,574.385,569.796,0.0
56793.0,STARLINK-6052,PAYLOAD,2024-03-29 22:05:27,14.9834125,0.0002357,70.0028,334.0392,276.3345,83.7546,-0.00036158,-4.406e-05,0.0,0 STARLINK-6052,1 56793U 23078AC  24089.92046192 -.00004406  00000-0 -36158-3 0  9998,2 56793  70.0028 334.0392 0002357 276.3345  83.7546 14.98341250 46369,6950.158,96.106,573.661,570.385,0.0
56793.0,STARLINK-6052,PAYLOAD,2024-03-30 02:53:52,14.98306411,0.0003232,70.0006,333.53,286.3645,73.7158,0.00020088,2.303e-05,0.0,0 STARLINK-6052,1 56793U 23078AC  24090.12074754  .00002303  00000-0  20088-3 0  9994,2 56793  70.0006 333.5300 0003232 286.3645  73.7158 14.98306411 46655,6950.266,96.109,574.377,569.885,0.0
56793.0,STARLINK-6052,PAYLOAD,2024-03-30 20:31:20,14.98322584,0.0002892,70.0014,331.6833,285.986,74.098,0.00026594,3.081e-05,0.0,0 STARLINK-6052,1 56793U 23078AC  24090.85510115  .00003081  00000-0  26594-3 0  9992,2 56793  70.0014 331.6833 0002892 285.9860  74.0980 14.98322584 46767,6950.216,96.107,574.091,570.071,0.0
56793.0,STARLINK-6052,PAYLOAD,2024-03-30 22:07:28,14.98325431,0.0003648,69.9986,331.5141,275.6147,84.4596,0.00019971,2.29e-05,0.0,0 STARLINK-6052,1 56793U 23078AC  24090.92185866  .00002290  00000-0  19971-3 0  9993,2 56793  69.9986 331.5141 0003648 275.6147  84.4596 14.98325431 46512,6950.207,96.107,574.607,569.537,0.0
